[
    {
        "Altitude(m)": 617719.7860764756,
        "Argument of Periapsis(deg)": 0.0,
        "Eccentricity": 0.0,
        "Inclination(deg)": 60.0,
        "Latitude(deg)": -41.10268107463276,
        "Longitude(deg)": -124.90542855585504,
        "Mean Anomaly(deg)": 229.09089999999998,
        "RAAN(deg)": 125.00000000000001,
        "Satellite Name": "Test1 564",
        "Satellite Number": 564,
        "Semi-Major Axis(m)": 6980739.136638005,
        "Time(s)": 0
    },
    {
        "Altitude(m)": 617911.3222971396,
        "Argument of Periapsis(deg)": 0.00010418945913296404,
        "Eccentricity": 0.0,
        "Inclination(deg)": 60.0,
        "Latitude(deg)": -41.56587381263346,
        "Longitude(deg)": -124.40102292901682,
        "Mean Anomaly(deg)": 229.71100614546188,
        "RAAN(deg)": 124.99957995086027,
        "Satellite Name": "Test1 564",
        "Satellite Number": 564,
        "Semi-Major Axis(m)": 6980739.136638005,
        "Time(s)": 10
    },
    {
        "Altitude(m)": 618101.7332913526,
        "Argument of Periapsis(deg)": 0.0002083789182659281,
        "Eccentricity": 0.0,
        "Inclination(deg)": 60.0,
        "Latitude(deg)": -42.02638805471293,
        "Longitude(deg)": -123.88880990746101,
        "Mean Anomaly(deg)": 230.33111229092364,
        "RAAN(deg)": 124.99915990172053,
        "Satellite Name": "Test1 564",
        "Satellite Number": 564,
        "Semi-Major Axis(m)": 6980739.136638005,
        "Time(s)": 20
    },
    {
        "Altitude(m)": 618290.9460316794,
        "Argument of Periapsis(deg)": 0.00031256837739889213,
        "Eccentricity": 0.0,
        "Inclination(deg)": 60.0,
        "Latitude(deg)": -42.484143554182346,
        "Longitude(deg)": -123.36859480484017,
        "Mean Anomaly(deg)": 230.95121843638555,
        "RAAN(deg)": 124.99873985258078,
        "Satellite Name": "Test1 564",
        "Satellite Number": 564,
        "Semi-Major Axis(m)": 6980739.136638005,
        "Time(s)": 30
    },
    {
        "Altitude(m)": 618478.8878678936,
        "Argument of Periapsis(deg)": 0.0004167578365318562,
        "Eccentricity": 0.0,
        "Inclination(deg)": 60.0,
        "Latitude(deg)": -42.939057539290005,
        "Longitude(deg)": -122.84017914107619,
        "Mean Anomaly(deg)": 231.57132458184736,
        "RAAN(deg)": 124.99831980344105,
        "Satellite Name": "Test1 564",
        "Satellite Number": 564,
        "Semi-Major Axis(m)": 6980739.136638005,
        "Time(s)": 40
    },
    {
        "Altitude(m)": 618665.4865586496,
        "Argument of Periapsis(deg)": 0.0005209472956648203,
        "Eccentricity": 0.0,
        "Inclination(deg)": 60.0,
        "Latitude(deg)": -43.39104463510751,
        "Longitude(deg)": -122.30336174027468,
        "Mean Anomaly(deg)": 232.19143072730915,
        "RAAN(deg)": 124.99789975430129,
        "Satellite Name": "Test1 564",
        "Satellite Number": 564,
        "Semi-Major Axis(m)": 6980739.136638005,
        "Time(s)": 50
    },
    {
        "Altitude(m)": 618850.6703029056,
        "Argument of Periapsis(deg)": 0.0006251367547977843,
        "Eccentricity": 0.0,
        "Inclination(deg)": 60.0,
        "Latitude(deg)": -43.84001678477493,
        "Longitude(deg)": -121.75793833551711,
        "Mean Anomaly(deg)": 232.81153687277106,
        "RAAN(deg)": 124.99747970516155,
        "Satellite Name": "Test1 564",
        "Satellite Number": 564,
        "Semi-Major Axis(m)": 6980739.136638005,
        "Time(s)": 60
    },
    {
        "Altitude(m)": 619034.3677711906,
        "Argument of Periapsis(deg)": 0.0007293262139307483,
        "Eccentricity": 0.0,
        "Inclination(deg)": 60.0,
        "Latitude(deg)": -44.28588317033827,
        "Longitude(deg)": -121.2037011952687,
        "Mean Anomaly(deg)": 233.4316430182328,
        "RAAN(deg)": 124.9970596560218,
        "Satellite Name": "Test1 564",
        "Satellite Number": 564,
        "Semi-Major Axis(m)": 6980739.136638005,
        "Time(s)": 70
    },
    {
        "Altitude(m)": 619216.5081365746,
        "Argument of Periapsis(deg)": 0.0008335156730637124,
        "Eccentricity": 0.0,
        "Inclination(deg)": 60.0,
        "Latitude(deg)": -44.72855013344233,
        "Longitude(deg)": -120.64044028626617,
        "Mean Anomaly(deg)": 234.05174916369467,
        "RAAN(deg)": 124.99663960688207,
        "Satellite Name": "Test1 564",
        "Satellite Number": 564,
        "Semi-Major Axis(m)": 6980739.136638005,
        "Time(s)": 80
    },
    {
        "Altitude(m)": 619397.0211054748,
        "Argument of Periapsis(deg)": 0.0009377051321966765,
        "Eccentricity": 0.0,
        "Inclination(deg)": 60.0,
        "Latitude(deg)": -45.167921096183704,
        "Longitude(deg)": -120.06794294924104,
        "Mean Anomaly(deg)": 234.67185530915646,
        "RAAN(deg)": 124.99621955774232,
        "Satellite Name": "Test1 564",
        "Satellite Number": 564,
        "Semi-Major Axis(m)": 6980739.136638005,
        "Time(s)": 90
    },
    {
        "Altitude(m)": 619575.836948129,
        "Argument of Periapsis(deg)": 0.0010418945913296407,
        "Eccentricity": 0.0,
        "Inclination(deg)": 60.0,
        "Latitude(deg)": -45.60389648246756,
        "Longitude(deg)": -119.48599360257441,
        "Mean Anomaly(deg)": -124.70803854538171,
        "RAAN(deg)": 124.99579950860259,
        "Satellite Name": "Test1 564",
        "Satellite Number": 564,
        "Semi-Major Axis(m)": 6980739.136638005,
        "Time(s)": 100
    },
    {
        "Altitude(m)": 619752.8865288427,
        "Argument of Periapsis(deg)": 0.0011460840504626045,
        "Eccentricity": 0.0,
        "Inclination(deg)": 60.0,
        "Latitude(deg)": -46.036373640247604,
        "Longitude(deg)": -118.89437498910813,
        "Mean Anomaly(deg)": -124.08793239991984,
        "RAAN(deg)": 124.99537945946284,
        "Satellite Name": "Test1 564",
        "Satellite Number": 564,
        "Semi-Major Axis(m)": 6980739.136638005,
        "Time(s)": 110
    },
    {
        "Altitude(m)": 619928.1013359415,
        "Argument of Periapsis(deg)": 0.0012502735095955685,
        "Eccentricity": 0.0,
        "Inclination(deg)": 60.0,
        "Latitude(deg)": -46.465246765087514,
        "Longitude(deg)": -118.2928679428124,
        "Mean Anomaly(deg)": -123.46782625445802,
        "RAAN(deg)": 124.9949594103231,
        "Satellite Name": "Test1 564",
        "Satellite Number": 564,
        "Semi-Major Axis(m)": 6980739.136638005,
        "Time(s)": 120
    },
    {
        "Altitude(m)": 620101.4135114349,
        "Argument of Periapsis(deg)": 0.0013544629687285324,
        "Eccentricity": 0.0,
        "Inclination(deg)": 60.0,
        "Latitude(deg)": -46.890406825521545,
        "Longitude(deg)": -117.68125119075222,
        "Mean Anomaly(deg)": -122.84772010899617,
        "RAAN(deg)": 124.99453936118336,
        "Satellite Name": "Test1 564",
        "Satellite Number": 564,
        "Semi-Major Axis(m)": 6980739.136638005,
        "Time(s)": 130
    },
    {
        "Altitude(m)": 620272.755880367,
        "Argument of Periapsis(deg)": 0.0014586524278614966,
        "Eccentricity": 0.0,
        "Inclination(deg)": 60.0,
        "Latitude(deg)": -47.31174149074825,
        "Longitude(deg)": -117.05930270589096,
        "Mean Anomaly(deg)": -122.22761396353435,
        "RAAN(deg)": 124.99411931204362,
        "Satellite Name": "Test1 564",
        "Satellite Number": 564,
        "Semi-Major Axis(m)": 6980739.136638005,
        "Time(s)": 140
    },
    {
        "Altitude(m)": 620442.061979844,
        "Argument of Periapsis(deg)": 0.0015628418869944607,
        "Eccentricity": 0.0,
        "Inclination(deg)": 60.0,
        "Latitude(deg)": -47.7291350612536,
        "Longitude(deg)": -116.42679958772868,
        "Mean Anomaly(deg)": -121.60750781807248,
        "RAAN(deg)": 124.99369926290387,
        "Satellite Name": "Test1 564",
        "Satellite Number": 564,
        "Semi-Major Axis(m)": 6980739.136638005,
        "Time(s)": 150
    },
    {
        "Altitude(m)": 620609.2660877468,
        "Argument of Periapsis(deg)": 0.0016670313461274247,
        "Eccentricity": 0.0,
        "Inclination(deg)": 60.0,
        "Latitude(deg)": -48.14246840301254,
        "Longitude(deg)": -115.78351798647542,
        "Mean Anomaly(deg)": -120.98740167261072,
        "RAAN(deg)": 124.99327921376414,
        "Satellite Name": "Test1 564",
        "Satellite Number": 564,
        "Semi-Major Axis(m)": 6980739.136638005,
        "Time(s)": 160
    },
    {
        "Altitude(m)": 620774.3032510761,
        "Argument of Periapsis(deg)": 0.0017712208052603888,
        "Eccentricity": 0.0,
        "Inclination(deg)": 60.0,
        "Latitude(deg)": -48.55161888598684,
        "Longitude(deg)": -115.12923458650715,
        "Mean Anomaly(deg)": -120.36729552714885,
        "RAAN(deg)": 124.99285916462439,
        "Satellite Name": "Test1 564",
        "Satellite Number": 564,
        "Semi-Major Axis(m)": 6980739.136638005,
        "Time(s)": 170
    },
    {
        "Altitude(m)": 620937.1093139694,
        "Argument of Periapsis(deg)": 0.001875410264393353,
        "Eccentricity": 0.0,
        "Inclination(deg)": 60.0,
        "Latitude(deg)": -48.95646032770368,
        "Longitude(deg)": -114.46372662626024,
        "Mean Anomaly(deg)": -119.7471893816871,
        "RAAN(deg)": 124.99243911548466,
        "Satellite Name": "Test1 564",
        "Satellite Number": 564,
        "Semi-Major Axis(m)": 6980739.136638005,
        "Time(s)": 180
    },
    {
        "Altitude(m)": 621097.6209453315,
        "Argument of Periapsis(deg)": 0.0019795997235263173,
        "Eccentricity": 0.0,
        "Inclination(deg)": 60.0,
        "Latitude(deg)": -49.35686294276994,
        "Longitude(deg)": -113.78677197034152,
        "Mean Anomaly(deg)": -119.12708323622522,
        "RAAN(deg)": 124.99201906634491,
        "Satellite Name": "Test1 564",
        "Satellite Number": 564,
        "Semi-Major Axis(m)": 6980739.136638005,
        "Time(s)": 190
    }
]